COMMENT,ORIGINATOR,NORAD_CAT_ID,OBJECT_NAME,OBJECT_TYPE,CLASSIFICATION_TYPE,INTLDES,EPOCH,EPOCH_MICROSECONDS,MEAN_MOTION,ECCENTRICITY,INCLINATION,RA_OF_ASC_NODE,ARG_OF_PERICENTER,MEAN_ANOMALY,EPHEMERIS_TYPE,ELEMENT_SET_NO,REV_AT_EPOCH,BSTAR,MEAN_MOTION_DOT,MEAN_MOTION_DDOT,FILE,TLE_LINE0,TLE_LINE1,TLE_LINE2,OBJECT_ID,OBJECT_NUMBER,SEMIMAJOR_AXIS,PERIOD,APOGEE,PERIGEE,DECAYED
"GENERATED VIA SPACETRACK.ORG API","18 SPCS","55101","SPACEBEE-159","PAYLOAD","U","23001CW","2024-03-28 22:45:43","501824","15.40057737","0.0010544","97.4291","154.4454","81.1045","279.1394","0","999","6875","0.0015202","0.00061201","0","4249475","0 SPACEBEE-159","1 55101U 23001CW  24088.94842016  .00061201  00000-0  15202-2 0  9996","2 55101  97.4291 154.4454 0010544  81.1045 279.1394 15.40057737 68756","2023-001CW","55101","6824.076","93.503","453.136","438.745","0"
"GENERATED VIA SPACETRACK.ORG API","18 SPCS","55101","SPACEBEE-159","PAYLOAD","U","23001CW","2024-03-29 09:40:39","497088","15.40116311","0.0010522","97.4291","154.9076","79.4221","280.821","0","999","6882","0.0016093","0.00064948","0","4250244","0 SPACEBEE-159","1 55101U 23001CW  24089.40323492  .00064948  00000-0  16093-2 0  9990","2 55101  97.4291 154.9076 0010522  79.4221 280.8210 15.40116311 68821","2023-001CW","55101","6823.903","93.499","452.948","438.588","0"
"GENERATED VIA SPACETRACK.ORG API","18 SPCS","55101","SPACEBEE-159","PAYLOAD","U","23001CW","2024-03-29 09:40:39","497088","15.40116311","0.0010522","97.4291","154.9076","79.4221","280.821","0","999","6882","0.0016093","0.00064948","0","4251025","0 SPACEBEE-159","1 55101U 23001CW  24089.40323492  .00064948  00000-0  16093-2 0  9990","2 55101  97.4291 154.9076 0010522  79.4221 280.8210 15.40116311 68821","2023-001CW","55101","6823.903","93.499","452.948","438.588","0"
"GENERATED VIA SPACETRACK.ORG API","18 SPCS","55101","SPACEBEE-159","PAYLOAD","U","23001CW","2024-03-29 22:09:07","323552","15.40184488","0.001045","97.429","155.4351","77.7861","282.4555","0","999","6890","0.0014524","0.00058691","0","4251655","0 SPACEBEE-159","1 55101U 23001CW  24089.92300143  .00058691  00000-0  14524-2 0  9990","2 55101  97.4290 155.4351 0010450  77.7861 282.4555 15.40184488 68902","2023-001CW","55101","6823.701","93.495","452.697","438.436","0"
"GENERATED VIA SPACETRACK.ORG API","18 SPCS","55101","SPACEBEE-159","PAYLOAD","U","23001CW","2024-03-30 02:49:47","280576","15.40210733","0.0010448","97.429","155.6331","77.2811","282.9603","0","999","6893","0.001443","0.00058358","0","4253807","0 SPACEBEE-159","1 55101U 23001CW  24090.11790834  .00058358  00000-0  14430-2 0  9999","2 55101  97.4290 155.6331 0010448  77.2811 282.9603 15.40210733 68934","2023-001CW","55101","6823.624","93.494","452.618","438.360","0"
"GENERATED VIA SPACETRACK.ORG API","18 SPCS","55101","SPACEBEE-159","PAYLOAD","U","23001CW","2024-03-31 03:46:36","224544","15.40331876","0.0010323","97.4289","156.689","73.6314","286.6066","0","999","6909","0.0018578","0.00075621","0","4254937","0 SPACEBEE-159","1 55101U 23001CW  24091.15736371  .00075621  00000-0  18578-2 0  9999","2 55101  97.4289 156.6890 0010323  73.6314 286.6066 15.40331876 69097","2023-001CW","55101","6823.266","93.486","452.175","438.087","0"
"GENERATED VIA SPACETRACK.ORG API","18 SPCS","55101","SPACEBEE-159","PAYLOAD","U","23001CW","2024-03-31 03:46:36","224544","15.40331876","0.0010323","97.4289","156.689","73.6314","286.6066","0","999","6909","0.0018578","0.00075621","0","4255611","0 SPACEBEE-159","1 55101U 23001CW  24091.15736371  .00075621  00000-0  18578-2 0  9999","2 55101  97.4289 156.6890 0010323  73.6314 286.6066 15.40331876 69097","2023-001CW","55101","6823.266","93.486","452.175","438.087","0"
"GENERATED VIA SPACETRACK.ORG API","18 SPCS","55101","SPACEBEE-159","PAYLOAD","U","23001CW","2024-03-31 16:14:57","836256","15.40395133","0.0010259","97.4286","157.2176","71.431","288.8049","0","999","6917","0.0014752","0.00060034","0","4256222","0 SPACEBEE-159","1 55101U 23001CW  24091.67705829  .00060034  00000-0  14752-2 0  9992","2 55101  97.4286 157.2176 0010259  71.4310 288.8049 15.40395133 69178","2023-001CW","55101","6823.079","93.483","451.944","437.944","0"
"GENERATED VIA SPACETRACK.ORG API","18 SPCS","55101","SPACEBEE-159","PAYLOAD","U","23001CW","2024-03-31 22:29:07","948320","15.40424895","0.0010215","97.4287","157.4811","70.8062","289.4289","0","999","6921","0.001387","0.00056468","0","4256238","0 SPACEBEE-159","1 55101U 23001CW  24091.93689755  .00056468  00000-0  13870-2 0  9996","2 55101  97.4287 157.4811 0010215  70.8062 289.4289 15.40424895 69212","2023-001CW","55101","6822.991","93.481","451.826","437.887","0"
"GENERATED VIA SPACETRACK.ORG API","18 SPCS","55101","SPACEBEE-159","PAYLOAD","U","23001CW","2024-04-01 10:57:26","874720","15.40485542","0.0010209","97.4288","158.0096","68.714","291.5196","0","999","6929","0.0014419","0.00058842","0","4257565","0 SPACEBEE-159","1 55101U 23001CW  24092.45656105  .00058842  00000-0  14419-2 0  9995","2 55101  97.4288 158.0096 0010209  68.7140 291.5196 15.40485542 69296","2023-001CW","55101","6822.812","93.477","451.643","437.712","0"
"GENERATED VIA SPACETRACK.ORG API","18 SPCS","55101","SPACEBEE-159","PAYLOAD","U","23001CW","2024-04-01 17:11:35","721024","15.40518325","0.0010151","97.4287","158.2735","67.7387","292.4935","0","999","6933","0.0015041","0.0006147","0","4258192","0 SPACEBEE-159","1 55101U 23001CW  24092.71638566  .00061470  00000-0  15041-2 0  9998","2 55101  97.4287 158.2735 0010151  67.7387 292.4935 15.40518325 69337","2023-001CW","55101","6822.716","93.475","451.506","437.655","0"
"GENERATED VIA SPACETRACK.ORG API","18 SPCS","55101","SPACEBEE-159","PAYLOAD","U","23001CW","2024-04-02 10:20:27","682944","15.40593645","0.0010055","97.4287","158.9996","65.4965","294.7329","0","999","6944","0.0012233","0.00050027","0","4259431","0 SPACEBEE-159","1 55101U 23001CW  24093.43087596  .00050027  00000-0  12233-2 0  9995","2 55101  97.4287 158.9996 0010055  65.4965 294.7329 15.40593645 69445","2023-001CW","55101","6822.493","93.470","451.218","437.498","0"
"GENERATED VIA SPACETRACK.ORG API","18 SPCS","55101","SPACEBEE-159","PAYLOAD","U","23001CW","2024-04-02 18:08:06","792288","15.40623297","0.0009958","97.4285","159.3294","64.1539","296.0733","0","999","6949","0.0011323","0.00046321","0","4260044","0 SPACEBEE-159","1 55101U 23001CW  24093.75563417  .00046321  00000-0  11323-2 0  9992","2 55101  97.4285 159.3294 0009958  64.1539 296.0733 15.40623297 69498","2023-001CW","55101","6822.406","93.469","451.064","437.477","0"
"GENERATED VIA SPACETRACK.ORG API","18 SPCS","55101","SPACEBEE-159","PAYLOAD","U","23001CW","2024-04-03 14:23:57","837408","15.4069921","0.0009876","97.4288","160.1877","61.1816","299.0421","0","999","6962","0.001062","0.00043532","0","4261282","0 SPACEBEE-159","1 55101U 23001CW  24094.59997497  .00043532  00000-0  10620-2 0  9994","2 55101  97.4288 160.1877 0009876  61.1816 299.0421 15.40699210 69622","2023-001CW","55101","6822.181","93.464","450.784","437.309","0"
"GENERATED VIA SPACETRACK.ORG API","18 SPCS","55101","SPACEBEE-159","PAYLOAD","U","23001CW","2024-04-03 22:11:34","937088","15.40729137","0.0009844","97.4288","160.5174","60.2272","299.9952","0","999","6967","0.0010607","0.00043521","0","4261881","0 SPACEBEE-159","1 55101U 23001CW  24094.92470992  .00043521  00000-0  10607-2 0  9990","2 55101  97.4288 160.5174 0009844  60.2272 299.9952 15.40729137 69672","2023-001CW","55101","6822.093","93.462","450.674","437.242","0"
"GENERATED VIA SPACETRACK.ORG API","18 SPCS","55101","SPACEBEE-159","PAYLOAD","U","23001CW","2024-04-04 02:52:08","976576","15.40746815","0.0009829","97.4288","160.7154","59.5477","300.6739","0","999","6970","0.0010611","0.00043563","0","4262472","0 SPACEBEE-159","1 55101U 23001CW  24095.11954834  .00043563  00000-0  10611-2 0  9995","2 55101  97.4288 160.7154 0009829  59.5477 300.6739 15.40746815 69702","2023-001CW","55101","6822.041","93.461","450.611","437.201","0"
"GENERATED VIA SPACETRACK.ORG API","18 SPCS","55101","SPACEBEE-159","PAYLOAD","U","23001CW","2024-04-04 02:52:08","976576","15.40746815","0.0009829","97.4288","160.7154","59.5477","300.6739","0","999","6970","0.0010611","0.00043563","0","4263133","0 SPACEBEE-159","1 55101U 23001CW  24095.11954834  .00043563  00000-0  10611-2 0  9995","2 55101  97.4288 160.7154 0009829  59.5477 300.6739 15.40746815 69702","2023-001CW","55101","6822.041","93.461","450.611","437.201","0"
"GENERATED VIA SPACETRACK.ORG API","18 SPCS","55101","SPACEBEE-159","PAYLOAD","U","23001CW","2024-04-04 16:53:50","75520","15.4079331","0.0009771","97.4289","161.3095","57.6358","302.5833","0","999","6979","0.00099367","0.00040837","0","4263706","0 SPACEBEE-159","1 55101U 23001CW  24095.70405180  .00040837  00000-0  99367-3 0  9992","2 55101  97.4289 161.3095 0009771  57.6358 302.5833 15.40793310 69794","2023-001CW","55101","6821.904","93.458","450.434","437.103","0"
"GENERATED VIA SPACETRACK.ORG API","18 SPCS","55101","SPACEBEE-159","PAYLOAD","U","23001CW","2024-04-05 03:48:27","447264","15.40841171","0.0009747","97.4289","161.7714","55.7752","304.4417","0","999","6986","0.0012003","0.00049479","0","4264259","0 SPACEBEE-159","1 55101U 23001CW  24096.15865101  .00049479  00000-0  12003-2 0  9997","2 55101  97.4289 161.7714 0009747  55.7752 304.4417 15.40841171 69862","2023-001CW","55101","6821.762","93.455","450.277","436.978","0"
"GENERATED VIA SPACETRACK.ORG API","18 SPCS","55101","SPACEBEE-159","PAYLOAD","U","23001CW","2024-04-05 11:36:01","975680","15.40874742","0.0009712","97.4289","162.1016","54.7033","305.512","0","999","6991","0.0012285","0.00050707","0","4264927","0 SPACEBEE-159","1 55101U 23001CW  24096.48335620  .00050707  00000-0  12285-2 0  9999","2 55101  97.4289 162.1016 0009712  54.7033 305.5120 15.40874742 69914","2023-001CW","55101","6821.663","93.453","450.154","436.903","0"
